{
    "links": {
        "self": "http://www.neowsapp.com/rest/v1/neo/3669069?api_key=iIulBulltgU6a56xZRHN4H3l9WmuAYTsLGpBGhQ2"
    },
    "id": "3669069",
    "neo_reference_id": "3669069",
    "name": "(2014 HF5)",
    "designation": "2014 HF5",
    "nasa_jpl_url": "http://ssd.jpl.nasa.gov/sbdb.cgi?sstr=3669069",
    "absolute_magnitude_h": 25.3,
    "estimated_diameter": {
        "kilometers": {
            "estimated_diameter_min": 0.0231502122,
            "estimated_diameter_max": 0.0517654482
        },
        "meters": {
            "estimated_diameter_min": 23.150212221,
            "estimated_diameter_max": 51.7654482198
        },
        "miles": {
            "estimated_diameter_min": 0.0143848705,
            "estimated_diameter_max": 0.0321655483
        },
        "feet": {
            "estimated_diameter_min": 75.9521422633,
            "estimated_diameter_max": 169.8341531374
        }
    },
    "is_potentially_hazardous_asteroid": false,
    "close_approach_data": [
        {
            "close_approach_date": "2014-04-25",
            "close_approach_date_full": "2014-Apr-25 18:12",
            "epoch_date_close_approach": 1398449520000,
            "relative_velocity": {
                "kilometers_per_second": "6.4893033998",
                "kilometers_per_hour": "23361.4922392742",
                "miles_per_hour": "14515.922775009"
            },
            "miss_distance": {
                "astronomical": "0.0378487716",
                "lunar": "14.7231721524",
                "kilometers": "5662095.613476492",
                "miles": "3518263.0701879096"
            },
            "orbiting_body": "Earth"
        }
    ],
    "orbital_data": {
        "orbit_id": "7",
        "orbit_determination_date": "2017-04-06 08:41:27",
        "first_observation_date": "2014-04-24",
        "last_observation_date": "2014-05-08",
        "data_arc_in_days": 14,
        "observations_used": 29,
        "orbit_uncertainty": "8",
        "minimum_orbit_intersection": ".037723",
        "jupiter_tisserand_invariant": "3.811",
        "epoch_osculation": "2456775.5",
        "eccentricity": ".4510399345468166",
        "semi_major_axis": "1.899933957319588",
        "inclination": "6.125638037743215",
        "ascending_node_longitude": "217.6597061829704",
        "orbital_period": "956.5467142615881",
        "perihelion_distance": "1.042987869566887",
        "perihelion_argument": "354.0276060378507",
        "aphelion_distance": "2.75688004507229",
        "perihelion_time": "2456769.972445871692",
        "mean_anomaly": "2.080316054116615",
        "mean_motion": ".3763538096285283",
        "equinox": "J2000",
        "orbit_class": {
            "orbit_class_type": "AMO",
            "orbit_class_description": "Near-Earth asteroid orbits similar to that of 1221 Amor",
            "orbit_class_range": "1.017 AU < q (perihelion) < 1.3 AU"
        }
    },
    "is_sentry_object": false
}